STARLINK-35450          
1 65868C 25223Q   26123.80048611  .00031108  00000+0  10483-2 0  1238
2 65868  53.1609  38.3569 0001238  88.7279 177.1886 15.30179060    19
STARLINK-35441          
1 65869C 25223R   26123.76090278  .00051856  00000+0  17478-2 0  1233
2 65869  53.1612  38.6091 0001401  95.5804 277.2694 15.30164789    10
STARLINK-35433          
1 65870C 25223S   26123.79701389  .00035243  00000+0  11878-2 0  1230
2 65870  53.1589  38.0504 0001273  97.9274 311.7221 15.30173677    18
STARLINK-35465          
1 65871C 25223T   26123.75743056  .00044944  00000+0  15166-2 0  1236
2 65871  53.1597  38.3713 0001242  96.1437  25.6128 15.30131120    15
STARLINK-34108          
1 65872C 25223U   26123.80604167  .00030518  00000+0  10286-2 0  1232
2 65872  53.1591  37.9957 0001128  99.7690   5.4578 15.30176273    11
STARLINK-35423          
1 65873C 25223V   26123.79145833  .00037857  00000+0  12759-2 0  1231
2 65873  53.1597  37.9478 0001240  96.6108 346.4030 15.30171838    14
STARLINK-35425          
1 65874C 25223W   26123.79284722  .00025629  00000+0  86458-3 0  1235
2 65874  53.1607  38.3437 0001193  81.3387 165.7231 15.30149118    15
STARLINK-34688          
1 65875C 25223X   26123.75465278  .00051922  00000+0  17499-2 0  1232
2 65875  53.1607  38.7834 0001204  94.5892 168.2013 15.30167497    17
STARLINK-34438          
1 65876C 25223Y   26123.74006944  .00024237  00000+0  81694-3 0  1231
2 65876  53.1609  38.6769 0001443  89.7554 179.9179 15.30176226    14
STARLINK-35462          
1 65877C 25223Z   26123.79284722  .00036793  00000+0  12400-2 0  1237
2 65877  53.1596  37.9617 0001263  94.1606 344.8896 15.30173797    11
STARLINK-35453          
1 65878C 25223AA  26123.74840278  .00055639  00000+0  18751-2 0  1232
2 65878  53.1611  38.7083 0001334  94.5229 186.1681 15.30165723    19
STARLINK-35418          
1 65879C 25223AB  26123.75187500  .00051692  00000+0  17423-2 0  1236
2 65879  53.1607  38.7816 0001320  93.1359 160.1731 15.30163199    16
STARLINK-35445          
1 65880C 25223AC  26123.75187500  .00037872  00000+0  12763-2 0  1234
2 65880  53.1608  38.5535 0001318 105.8898 263.7391 15.30176913    11
STARLINK-35464          
1 65881C 25223AD  26123.81368056  .00033250  00000+0  10090-2 0  1236
2 65881  53.1612  38.3828 0001157  81.4357 209.0999 15.33530264    13
STARLINK-35270          
1 65882C 25224A   26123.74423611 -.00015319  00000+0 -45273-3 0  1239
2 65882  53.1591 115.3889 0000982  96.7678  17.8347 15.34390314    16
STARLINK-35367          
1 65883C 25224B   26123.82409722  .00035496  00000+0  10490-2 0  1234
2 65883  53.1591 114.8753 0000792  89.2292 176.5316 15.34366688    15
STARLINK-35384          
1 65884C 25224C   26123.79562500  .00021995  00000+0  74139-3 0  1235
2 65884  53.1575 115.4736 0001255  92.5272 139.6034 15.30177560    18
STARLINK-35415          
1 65885C 25224D   26123.79979167  .00023453  00000+0  69307-3 0  1239
2 65885  53.1590 114.9187 0001238  89.3277  76.9854 15.34372656    10
STARLINK-35413          
1 65886C 25224E   26123.82062500  .00027314  00000+0  80720-3 0  1230
2 65886  53.1584 114.7740 0001774  92.3764 212.3388 15.34368318    15
STARLINK-35332          
1 65887C 25224F   26123.78312500 -.00001198  00000+0 -35396-4 0  1238
2 65887  53.1588 114.8583 0001658  92.6561  51.3156 15.34380481    14
STARLINK-35362          
1 65888C 25224G   26123.80812500  .00015211  00000+0  51283-3 0  1238
2 65888  53.1582 115.4969 0001290  95.5150 164.7948 15.30173580    16
STARLINK-35193          
1 65889C 25224H   26123.80604167  .00015258  00000+0  51434-3 0  1236
2 65889  53.1584 115.5996 0001254  89.3273 107.1591 15.30179386    12
STARLINK-34542          
1 65890C 25224J   26123.80812500  .00047805  00000+0  16102-2 0  1235
2 65890  53.1586 115.5658 0001401 101.8732 123.4340 15.30186742    12
STARLINK-34791          
1 65891C 25224K   26123.77618056  .00036090  00000+0  12164-2 0  1230
2 65891  53.1586 115.8091 0000990  89.3441 267.6486 15.30173839    11
STARLINK-34853          
1 65892C 25224L   26123.74284722 -.00001111  00000+0 -32834-4 0  1233
2 65892  53.1587 115.3250 0000560  89.0385  52.7689 15.34384262    18
STARLINK-34921          
1 65893C 25224M   26123.77340278  .00018885  00000+0  63658-3 0  1237
2 65893  53.1584 115.6822 0001269  94.2729 317.2137 15.30177018    13
STARLINK-34672          
1 65894C 25224N   26123.78937500  .00005275  00000+0  17785-3 0  1238
2 65894  53.1578 115.5280 0001227  95.4240  84.8138 15.30178897    13
STARLINK-34898          
1 65895C 25224P   26123.78173611  .00015999  00000+0  47284-3 0  1235
2 65895  53.1585 115.1784 0001295  93.8326 239.6654 15.34372526    11
STARLINK-34906          
1 65896C 25224Q   26123.80881944  .00026880  00000+0  86459-3 0  1232
2 65896  53.1574 115.3016 0001197  97.3339 258.9561 15.31681004    16
STARLINK-34934          
1 65897C 25224R   26123.75256944 -.00000227  00000+0 -66986-5 0  1237
2 65897  53.1586 115.1741 0001179  87.2825 154.7838 15.34381702    16
STARLINK-34936          
1 65898C 25224S   26123.75187500  .00003837  00000+0  11340-3 0  1239
2 65898  53.1586 115.2478 0001480  87.8356 115.5029 15.34382217    14
STARLINK-35272          
1 65899C 25224T   26123.78173611  .00040891  00000+0  12079-2 0  1231
2 65899  53.1592 114.9225 0001668  87.6234  13.6907 15.34376624    17
STARLINK-35264          
1 65900C 25224U   26123.75673611 -.00002155  00000+0 -63703-4 0  1231
2 65900  53.1588 114.9933 0001123  94.8120 251.6898 15.34381947    18
STARLINK-35249          
1 65901C 25224V   26123.82340278  .00055395  00000+0  18670-2 0  1233
2 65901  53.1579 115.3900 0001324  90.0024 266.1543 15.30164628    11
STARLINK-35278          
1 65902C 25224W   26123.75465278  .00016038  00000+0  54077-3 0  1237
2 65902  53.1587 115.8241 0001179  78.8189 200.2551 15.30170781    13
STARLINK-35210          
1 65903C 25224X   26123.81993056  .00032729  00000+0  11033-2 0  1234
2 65903  53.1585 115.6244 0001126  90.5698 135.9395 15.30169942    18
STARLINK-35348          
1 65904C 25224Y   26123.78937500  .00031162  00000+0  92089-3 0  1234
2 65904  53.1592 114.9327 0001298  86.1887  34.1868 15.34368683    14
STARLINK-35380          
1 65905C 25224Z   26123.81854167  .00027621  00000+0  93115-3 0  1232
2 65905  53.1570 115.3083 0001223  95.7049 286.0159 15.30169754    14
STARLINK-35385          
1 65906C 25224AA  26123.76437500  .00002210  00000+0  65326-4 0  1236
2 65906  53.1593 115.1643 0001302  94.3777 189.6835 15.34379632    12
STARLINK-35347          
1 65907C 25224AB  26123.80812500  .00007778  00000+0  22988-3 0  1239
2 65907  53.1589 114.8889 0000743  86.1718 114.5749 15.34378023    12
STARLINK-35329          
1 65908C 25224AC  26123.76923611  .00036278  00000+0  10728-2 0  1236
2 65908  53.1587 115.2104 0000993  79.1433 196.8816 15.34346372    19
STARLINK-35387          
1 65909C 25224AD  26123.77270833  .00015943  00000+0  53744-3 0  1231
2 65909  53.1586 115.7968 0000980  87.4747 262.0201 15.30177661    11
STARLINK-35523          
1 65910C 25225A   26123.77270833 -.00014301  00000+0 -48201-3 0  1235
2 65910  53.1606 269.9679 0001288  80.1419 133.4158 15.30197508    19
STARLINK-35160          
1 65911C 25225B   26123.74631944 -.00035861  00000+0 -12088-2 0  1234
2 65911  53.1595 270.2290 0001355  80.9888 277.3180 15.30204837    11
STARLINK-35508          
1 65912C 25225C   26123.81159722  .00012071  00000+0  40687-3 0  1235
2 65912  53.1605 269.8220 0001291  82.3915 328.0670 15.30182744    17
STARLINK-35472          
1 65913C 25225D   26123.79215278  .00023578  00000+0  79473-3 0  1231
2 65913  53.1608 269.8427 0001237  79.7305 258.4574 15.30177748    10
STARLINK-35524          
1 65914C 25225E   26123.78381944  .00026553  00000+0  89505-3 0  1238
2 65914  53.1583 269.4320 0001243  80.4424  78.6613 15.30173843    17
STARLINK-35539          
1 65915C 25225F   26123.80534722  .00021010  00000+0  70807-3 0  1234
2 65915  53.1602 269.7070 0001228  87.8942   9.5326 15.30182848    13
STARLINK-35521          
1 65916C 25225G   26123.79979167  .00030083  00000+0  10139-2 0  1230
2 65916  53.1608 269.7605 0001372  80.3140 323.2464 15.30177196    11
STARLINK-35478          
1 65917C 25225H   26123.78659722  .00003905  00000+0  13162-3 0  1235
2 65917  53.1607 269.8554 0001342  83.8320 229.5559 15.30186430    14
STARLINK-35516          
1 65918C 25225J   26123.78520833 -.00015993  00000+0 -53906-3 0  1238
2 65918  53.1580 269.6439 0001209  77.1616 339.0754 15.30196741    11
STARLINK-35519          
1 65919C 25225K   26123.79770833  .00022557  00000+0  76052-3 0  1236
2 65919  53.1588 269.3316 0001449  77.8453 175.2600 15.30168466    16
STARLINK-33902          
1 65920C 25225L   26123.82131944  .00027271  00000+0  91922-3 0  1237
2 65920  53.1598 269.8675 0001264  83.1330 334.3829 15.30174250    10
STARLINK-35530          
1 65921C 25225M   26123.80951389  .00021605  00000+0  72826-3 0  1236
2 65921  53.1601 269.8877 0001317  80.2760 289.6158 15.30176920    17
STARLINK-35544          
1 65922C 25225N   26123.81020833 -.00004678  00000+0 -15770-3 0  1237
2 65922  53.1605 269.8498 0001281  82.6859 308.4966 15.30186697    15
STARLINK-35484          
1 65923C 25225P   26123.76506944  .00006496  00000+0  21898-3 0  1230
2 65923  53.1574 269.6669 0001291  84.4348 255.7052 15.30183293    12
STARLINK-34994          
1 65924C 25225Q   26123.77270833  .00019103  00000+0  64394-3 0  1234
2 65924  53.1575 269.5968 0001235  83.8947 315.7984 15.30177207    10
STARLINK-35458          
1 65925C 25225R   26123.77548611  .00010557  00000+0  35582-3 0  1238
2 65925  53.1575 269.5141 0000805  91.1193 358.7802 15.30185088    13
STARLINK-35492          
1 65926C 25225S   26123.75604167 -.00032385  00000+0 -10917-2 0  1235
2 65926  53.1574 269.6395 0001193  87.5271 237.7598 15.30200128    13
